{
  "type": "FeatureCollection",
  "features": [
    {
      "type": "Feature",
      "properties": {
        "norad_id": 66913,
        "name": "2025-284A",
        "group": "last-30-days",
        "lat": -75.37623527254152,
        "lon": 80.9586014712871,
        "alt_km": 532.436882389814,
        "timestamp": "2025-12-19T08:58:48.084531+00:00",
        "meta_object_name": "2025-284A",
        "meta_object_id": "2025-284A",
        "meta_epoch": "2025-12-18T06:24:29.359008",
        "meta_mean_motion": 15.16462178,
        "meta_eccentricity": 0.00203688,
        "meta_inclination": 80.4052,
        "meta_ra_of_asc_node": 122.7714,
        "meta_arg_of_pericenter": 156.4299,
        "meta_mean_anomaly": 203.7866,
        "meta_ephemeris_type": 0,
        "meta_classification_type": "U",
        "meta_norad_cat_id": 66913,
        "meta_element_set_no": 999,
        "meta_rev_at_epoch": 196,
        "meta_bstar": 0.00046237905,
        "meta_mean_motion_dot": 9.066e-05,
        "meta_mean_motion_ddot": 0,
        "tle_line1": "1 66913U 25284A   25352.26700647  .00009066  00000+0  46238-3 0  9991",
        "tle_line2": "2 66913  80.4052 122.7714 0020368 156.4299 203.7866 15.16462178  1964"
      },
      "geometry": {
        "type": "Point",
        "coordinates": [
          80.9586014712871,
          -75.37623527254152
        ]
      }
    },
    {
      "type": "Feature",
      "properties": {
        "norad_id": 66914,
        "name": "2025-284B",
        "group": "last-30-days",
        "lat": -39.489700806861826,
        "lon": 113.34284362849812,
        "alt_km": 515.7324199047644,
        "timestamp": "2025-12-19T08:58:48.084542+00:00",
        "meta_object_name": "2025-284B",
        "meta_object_id": "2025-284B",
        "meta_epoch": "2025-12-16T06:51:11.417184",
        "meta_mean_motion": 15.18985981,
        "meta_eccentricity": 0.00081793,
        "meta_inclination": 80.4045,
        "meta_ra_of_asc_node": 125.2713,
        "meta_arg_of_pericenter": 234.9626,
        "meta_mean_anomaly": 125.0834,
        "meta_ephemeris_type": 0,
        "meta_classification_type": "U",
        "meta_norad_cat_id": 66914,
        "meta_element_set_no": 999,
        "meta_rev_at_epoch": 166,
        "meta_bstar": 0.00038444995,
        "meta_mean_motion_dot": 8.068e-05,
        "meta_mean_motion_ddot": 0,
        "tle_line1": "1 66914U 25284B   25350.28554881  .00008068  00000+0  38445-3 0  9991",
        "tle_line2": "2 66914  80.4045 125.2713 0008179 234.9626 125.0834 15.18985981  1668"
      },
      "geometry": {
        "type": "Point",
        "coordinates": [
          113.34284362849812,
          -39.489700806861826
        ]
      }
    },
    {
      "type": "Feature",
      "properties": {
        "norad_id": 66915,
        "name": "HULIANWANG DIGUI-105",
        "group": "last-30-days",
        "lat": -48.05052144960771,
        "lon": -20.68356420818539,
        "alt_km": 881.5221044643622,
        "timestamp": "2025-12-19T08:58:48.084552+00:00",
        "meta_object_name": "HULIANWANG DIGUI-105",
        "meta_object_id": "2025-285A",
        "meta_epoch": "2025-12-18T21:30:44.562240",
        "meta_mean_motion": 14.03717431,
        "meta_eccentricity": 0.00080196,
        "meta_inclination": 50.0059,
        "meta_ra_of_asc_node": 92.2022,
        "meta_arg_of_pericenter": 303.2815,
        "meta_mean_anomaly": 56.7321,
        "meta_ephemeris_type": 0,
        "meta_classification_type": "U",
        "meta_norad_cat_id": 66915,
        "meta_element_set_no": 999,
        "meta_rev_at_epoch": 177,
        "meta_bstar": 8.5547263e-05,
        "meta_mean_motion_dot": -1.6e-07,
        "meta_mean_motion_ddot": 0,
        "tle_line1": "1 66915U 25285A   25352.89634910 -.00000016  00000+0  85547-4 0  9996",
        "tle_line2": "2 66915  50.0059  92.2022 0008019 303.2815  56.7321 14.03717431  1775"
      },
      "geometry": {
        "type": "Point",
        "coordinates": [
          -20.68356420818539,
          -48.05052144960771
        ]
      }
    },
    {
      "type": "Feature",
      "properties": {
        "norad_id": 66916,
        "name": "HULIANWANG DIGUI-106",
        "group": "last-30-days",
        "lat": -49.979085650254895,
        "lon": 1.6718810945181666,
        "alt_km": 881.0831170217034,
        "timestamp": "2025-12-19T08:58:48.084563+00:00",
        "meta_object_name": "HULIANWANG DIGUI-106",
        "meta_object_id": "2025-285B",
        "meta_epoch": "2025-12-18T23:09:03.434976",
        "meta_mean_motion": 14.03702325,
        "meta_eccentricity": 0.00068091,
        "meta_inclination": 50.0057,
        "meta_ra_of_asc_node": 91.8983,
        "meta_arg_of_pericenter": 296.7409,
        "meta_mean_anomaly": 63.2799,
        "meta_ephemeris_type": 0,
        "meta_classification_type": "U",
        "meta_norad_cat_id": 66916,
        "meta_element_set_no": 999,
        "meta_rev_at_epoch": 178,
        "meta_bstar": 8.226031e-05,
        "meta_mean_motion_dot": -2.1e-07,
        "meta_mean_motion_ddot": 0,
        "tle_line1": "1 66916U 25285B   25352.96462309 -.00000021  00000+0  82260-4 0  9991",
        "tle_line2": "2 66916  50.0057  91.8983 0006809 296.7409  63.2799 14.03702325  1784"
      },
      "geometry": {
        "type": "Point",
        "coordinates": [
          1.6718810945181666,
          -49.979085650254895
        ]
      }
    },
    {
      "type": "Feature",
      "properties": {
        "norad_id": 66917,
        "name": "HULIANWANG DIGUI-107",
        "group": "last-30-days",
        "lat": -48.8671318242275,
        "lon": 16.20058999764631,
        "alt_km": 880.7610155598977,
        "timestamp": "2025-12-19T08:58:48.084575+00:00",
        "meta_object_name": "HULIANWANG DIGUI-107",
        "meta_object_id": "2025-285C",
        "meta_epoch": "2025-12-18T21:23:48.278400",
        "meta_mean_motion": 14.03662048,
        "meta_eccentricity": 0.00074658,
        "meta_inclination": 50.0023,
        "meta_ra_of_asc_node": 92.1721,
        "meta_arg_of_pericenter": 306.0041,
        "meta_mean_anomaly": 54.017,
        "meta_ephemeris_type": 0,
        "meta_classification_type": "U",
        "meta_norad_cat_id": 66917,
        "meta_element_set_no": 999,
        "meta_rev_at_epoch": 177,
        "meta_bstar": -1.968386e-05,
        "meta_mean_motion_dot": -1.82e-06,
        "meta_mean_motion_ddot": 0,
        "tle_line1": "1 66917U 25285C   25352.89153100 -.00000182  00000+0 -19684-4 0  9999",
        "tle_line2": "2 66917  50.0023  92.1721 0007465 306.0041  54.0170 14.03662048  1775"
      },
      "geometry": {
        "type": "Point",
        "coordinates": [
          16.20058999764631,
          -48.8671318242275
        ]
      }
    },
    {
      "type": "Feature",
      "properties": {
        "norad_id": 66918,
        "name": "HULIANWANG DIGUI-108",
        "group": "last-30-days",
        "lat": -47.80327006850194,
        "lon": 22.39209355749791,
        "alt_km": 881.1943138145298,
        "timestamp": "2025-12-19T08:58:48.084588+00:00",
        "meta_object_name": "HULIANWANG DIGUI-108",
        "meta_object_id": "2025-285D",
        "meta_epoch": "2025-12-18T21:22:34.027968",
        "meta_mean_motion": 14.03601052,
        "meta_eccentricity": 0.00065901,
        "meta_inclination": 50.0045,
        "meta_ra_of_asc_node": 92.1712,
        "meta_arg_of_pericenter": 300.5997,
        "meta_mean_anomaly": 59.4257,
        "meta_ephemeris_type": 0,
        "meta_classification_type": "U",
        "meta_norad_cat_id": 66918,
        "meta_element_set_no": 999,
        "meta_rev_at_epoch": 177,
        "meta_bstar": -1.5553718e-05,
        "meta_mean_motion_dot": -1.76e-06,
        "meta_mean_motion_ddot": 0,
        "tle_line1": "1 66918U 25285D   25352.89067162 -.00000176  00000+0 -15554-4 0  9997",
        "tle_line2": "2 66918  50.0045  92.1712 0006590 300.5997  59.4257 14.03601052  1770"
      },
      "geometry": {
        "type": "Point",
        "coordinates": [
          22.39209355749791,
          -47.80327006850194
        ]
      }
    },
    {
      "type": "Feature",
      "properties": {
        "norad_id": 66919,
        "name": "HULIANWANG DIGUI-109",
        "group": "last-30-days",
        "lat": -45.56362169984962,
        "lon": 31.31268633509738,
        "alt_km": 880.0044753410766,
        "timestamp": "2025-12-19T08:58:48.084598+00:00",
        "meta_object_name": "HULIANWANG DIGUI-109",
        "meta_object_id": "2025-285E",
        "meta_epoch": "2025-12-18T23:03:16.908768",
        "meta_mean_motion": 14.03725272,
        "meta_eccentricity": 0.0007868,
        "meta_inclination": 50.0068,
        "meta_ra_of_asc_node": 91.879,
        "meta_arg_of_pericenter": 313.2656,
        "meta_mean_anomaly": 46.7591,
        "meta_ephemeris_type": 0,
        "meta_classification_type": "U",
        "meta_norad_cat_id": 66919,
        "meta_element_set_no": 999,
        "meta_rev_at_epoch": 178,
        "meta_bstar": -1.9991972e-05,
        "meta_mean_motion_dot": -1.83e-06,
        "meta_mean_motion_ddot": 0,
        "tle_line1": "1 66919U 25285E   25352.96061237 -.00000183  00000+0 -19992-4 0  9991",
        "tle_line2": "2 66919  50.0068  91.8790 0007868 313.2656  46.7591 14.03725272  1782"
      },
      "geometry": {
        "type": "Point",
        "coordinates": [
          31.31268633509738,
          -45.56362169984962
        ]
      }
    }
  ]
}